[
  {
    "index": 1,
    "satnum": 5,
    "tle1": "1 00005U 58002B   25311.61140918  .00000046  00000+0  34828-4 0  9990",
    "tle2": "2 00005  34.2548 278.1573 1841938 219.4718 125.6339 10.85925615419197",
    "selectedAt": "2025-11-08T17:48:40.581Z",
    "updatedAt": "2025-11-08T17:50:39.406Z"
  },
  {
    "index": 2,
    "satnum": 11,
    "tle1": "1 00011U 59001A   25311.96669639  .00000710  00000+0  35108-3 0  9990",
    "tle2": "2 00011  32.8739 202.1644 1448522 238.3022 106.8302 11.90104881509109",
    "selectedAt": "2025-11-08T17:48:40.581Z",
    "updatedAt": "2025-11-08T17:50:39.406Z"
  },
  {
    "index": 3,
    "satnum": 12,
    "tle1": "1 00012U 59001B   25310.98206581  .00002193  00000+0  12849-2 0  9998",
    "tle2": "2 00012  32.8998 288.3049 1647479   8.4964 354.0263 11.48257261505771",
    "selectedAt": "2025-11-08T17:48:40.581Z",
    "updatedAt": "2025-11-08T17:50:39.406Z"
  },
  {
    "index": 4,
    "satnum": 16,
    "tle1": "1 00016U 58002A   25311.79751980  .00000027  00000+0  10541-4 0  9993",
    "tle2": "2 00016  34.2770 225.2710 2024757 265.6564  71.1577 10.49568843665656",
    "selectedAt": "2025-11-08T17:48:40.581Z",
    "updatedAt": "2025-11-08T17:50:39.406Z"
  },
  {
    "index": 5,
    "satnum": 20,
    "tle1": "1 00020U 59007A   25311.81753654  .00003572  00000+0  14199-2 0  9996",
    "tle2": "2 00020  33.3542 343.7999 1640372 307.0470  39.0820 11.61405108458862",
    "selectedAt": "2025-11-08T17:48:40.581Z",
    "updatedAt": "2025-11-08T17:50:39.406Z"
  },
  {
    "index": 6,
    "satnum": 22,
    "tle1": "1 00022U 59009A   25312.14236980  .00013764  00000+0  53674-3 0  9991",
    "tle2": "2 00022  50.2720 108.4578 0086845 315.0825  44.3129 15.22720402766591",
    "selectedAt": "2025-11-08T17:48:40.581Z",
    "updatedAt": "2025-11-08T17:50:39.406Z"
  },
  {
    "index": 7,
    "satnum": 29,
    "tle1": "1 00029U 60002B   25311.54597542  .00001108  00000+0  17929-3 0  9992",
    "tle2": "2 00029  48.3795 357.6696 0022082  32.5922 327.6349 14.78316385509338",
    "selectedAt": "2025-11-08T17:48:40.581Z",
    "updatedAt": "2025-11-08T17:50:39.406Z"
  },
  {
    "index": 8,
    "satnum": 45,
    "tle1": "1 00045U 60007A   25312.14760677  .00000861  00000+0  23194-3 0  9999",
    "tle2": "2 00045  66.6928 224.8069 0253971 319.2610  38.9736 14.35730798348310",
    "selectedAt": "2025-11-08T17:48:40.581Z",
    "updatedAt": "2025-11-08T17:50:39.406Z"
  },
  {
    "index": 9,
    "satnum": 46,
    "tle1": "1 00046U 60007B   25312.14185352  .00001747  00000+0  34491-3 0  9997",
    "tle2": "2 00046  66.6868 110.6508 0188703  99.9310 262.3157 14.54366541424859",
    "selectedAt": "2025-11-08T17:48:40.581Z",
    "updatedAt": "2025-11-08T17:50:39.406Z"
  },
  {
    "index": 10,
    "satnum": 47,
    "tle1": "1 00047U 60007C   25312.20293465  .00001455  00000+0  32796-3 0  9992",
    "tle2": "2 00047  66.6639 280.4119 0226035 299.2347  58.6324 14.44951832418875",
    "selectedAt": "2025-11-08T17:48:40.581Z",
    "updatedAt": "2025-11-08T17:50:39.406Z"
  },
  {
    "index": 11,
    "satnum": 50,
    "tle1": "1 00050U 60009B   25311.74342794 -.00000100  00000+0 -12817-3 0  9996",
    "tle2": "2 00050  47.2278 129.0745 0113887  75.0271 286.3093 12.20161314910669",
    "selectedAt": "2025-11-08T17:48:40.581Z",
    "updatedAt": "2025-11-08T17:50:39.406Z"
  },
  {
    "index": 12,
    "satnum": 51,
    "tle1": "1 00051U 60009C   25311.49888809 -.00000010  00000+0  71553-3 0  9992",
    "tle2": "2 00051  47.2158  15.3411 0110554 256.5963 102.2482 12.18372323904141",
    "selectedAt": "2025-11-08T17:48:40.581Z",
    "updatedAt": "2025-11-08T17:50:39.406Z"
  },
  {
    "index": 13,
    "satnum": 52,
    "tle1": "1 00052U 60009D   76059.20960648 +.00000225 +00000-0 +10000-3 0  9997",
    "tle2": "2 00052 047.1450 002.7500 1406000 181.1400 000.0000 12.17682743007435",
    "selectedAt": "2025-11-08T17:48:40.581Z",
    "updatedAt": "2025-11-08T17:50:39.406Z"
  },
  {
    "index": 14,
    "satnum": 53,
    "tle1": "1 00053U 60009E   25312.01112984 -.00000096  00000+0 -10951-3 0  9997",
    "tle2": "2 00053  47.2780 304.5943 0097664 142.9293 217.8292 12.17393223908481",
    "selectedAt": "2025-11-08T17:48:40.581Z",
    "updatedAt": "2025-11-08T17:50:39.406Z"
  },
  {
    "index": 15,
    "satnum": 58,
    "tle1": "1 00058U 60013A   25311.94098719  .00000132  00000+0  68270-4 0  9994",
    "tle2": "2 00058  28.3258 182.3654 0164916 175.7723 184.4247 13.46419762204224",
    "selectedAt": "2025-11-08T17:48:40.581Z",
    "updatedAt": "2025-11-08T17:50:39.406Z"
  },
  {
    "index": 16,
    "satnum": 59,
    "tle1": "1 00059U 60013B   25311.96811469  .00000135  00000+0  58456-4 0  9990",
    "tle2": "2 00059  28.2476 180.2293 0189037 258.5208  99.4053 13.53152379213182",
    "selectedAt": "2025-11-08T17:48:40.581Z",
    "updatedAt": "2025-11-08T17:50:39.406Z"
  },
  {
    "index": 17,
    "satnum": 82,
    "tle1": "1 00082U 61004B   25311.75025184  .00000458  00000+0  39130-3 0  9990",
    "tle2": "2 00082  38.8602 102.2389 1168122 234.1725 114.4853 12.27775881 49589",
    "selectedAt": "2025-11-08T17:48:40.581Z",
    "updatedAt": "2025-11-08T17:50:39.406Z"
  },
  {
    "index": 18,
    "satnum": 107,
    "tle1": "1 00107U 61013A   25311.91512448  .00003400  00000+0  39799-3 0  9991",
    "tle2": "2 00107  28.7849 151.0975 0499610 223.5315 132.4773 14.20830465244983",
    "selectedAt": "2025-11-08T17:48:40.581Z",
    "updatedAt": "2025-11-08T17:50:39.406Z"
  },
  {
    "index": 19,
    "satnum": 115,
    "tle1": "1 00115U 60002D   25310.83588410  .00004907  00000+0  44700-3 0  9990",
    "tle2": "2 00115  48.1609 113.4146 0027246 334.6081  25.3496 14.96313525484816",
    "selectedAt": "2025-11-08T17:48:40.581Z",
    "updatedAt": "2025-11-08T17:50:39.406Z"
  },
  {
    "index": 20,
    "satnum": 116,
    "tle1": "1 00116U 61015A   25312.08215625  .00000092  00000+0  12852-3 0  9994",
    "tle2": "2 00116  66.8098  71.8397 0069018  66.2324 294.5974 13.92277833265928",
    "selectedAt": "2025-11-08T17:48:40.581Z",
    "updatedAt": "2025-11-08T17:50:39.406Z"
  },
  {
    "index": 21,
    "satnum": 117,
    "tle1": "1 00117U 61015B   25312.07863578  .00000030  00000+0  84071-4 0  9995",
    "tle2": "2 00117  66.8116 184.1696 0070845  92.9237 267.9952 13.90157951263327",
    "selectedAt": "2025-11-08T17:48:40.581Z",
    "updatedAt": "2025-11-08T17:50:39.406Z"
  },
  {
    "index": 22,
    "satnum": 118,
    "tle1": "1 00118U 61015C   25312.17875514  .00000244  00000+0  20414-3 0  9997",
    "tle2": "2 00118  66.7631 251.8192 0075525  65.6779 295.2167 14.02633444285146",
    "selectedAt": "2025-11-08T17:48:40.581Z",
    "updatedAt": "2025-11-08T17:50:39.406Z"
  },
  {
    "index": 23,
    "satnum": 119,
    "tle1": "1 00119U 61015D   25312.13152184  .00001762  00000+0  72411-3 0  9995",
    "tle2": "2 00119  66.7265 243.5468 0094176  58.3286 302.6953 14.26903345326776",
    "selectedAt": "2025-11-08T17:48:40.581Z",
    "updatedAt": "2025-11-08T17:50:39.406Z"
  },
  {
    "index": 24,
    "satnum": 120,
    "tle1": "1 00120U 61015E   25312.20259558  .00000864  00000+0  34982-3 0  9991",
    "tle2": "2 00120  66.7043 289.0076 0110194 168.9105 191.4461 14.29198613316740",
    "selectedAt": "2025-11-08T17:48:40.581Z",
    "updatedAt": "2025-11-08T17:50:39.406Z"
  },
  {
    "index": 25,
    "satnum": 121,
    "tle1": "1 00121U 61015F   25312.17117014  .00000070  00000+0  97292-4 0  9991",
    "tle2": "2 00121  66.7474 230.8973 0091016 163.8478 196.5541 14.00179318295423",
    "selectedAt": "2025-11-08T17:48:40.581Z",
    "updatedAt": "2025-11-08T17:50:39.406Z"
  },
  {
    "index": 26,
    "satnum": 122,
    "tle1": "1 00122U 61015G   25312.17531263  .00014537  00000+0  12923-2 0  9997",
    "tle2": "2 00122  66.7415 107.1981 0038283  10.0593 350.1295 14.95711285361159",
    "selectedAt": "2025-11-08T17:48:40.581Z",
    "updatedAt": "2025-11-08T17:50:39.406Z"
  },
  {
    "index": 27,
    "satnum": 123,
    "tle1": "1 00123U 61015H   25312.14280071  .00001229  00000+0  38423-3 0  9991",
    "tle2": "2 00123  66.6858 297.4595 0101610  70.5960 290.6092 14.41256459347670",
    "selectedAt": "2025-11-08T17:48:40.581Z",
    "updatedAt": "2025-11-08T17:50:39.406Z"
  },
  {
    "index": 28,
    "satnum": 124,
    "tle1": "1 00124U 61015J   25311.48363742  .00001102  00000+0  40049-3 0  9992",
    "tle2": "2 00124  66.5428 112.7012 0077030 283.9763  75.2780 14.35374873327106",
    "selectedAt": "2025-11-08T17:48:40.581Z",
    "updatedAt": "2025-11-08T17:50:39.406Z"
  },
  {
    "index": 29,
    "satnum": 125,
    "tle1": "1 00125U 61015K   25311.88857535  .00000539  00000+0  35668-3 0  9999",
    "tle2": "2 00125  66.8737 123.2170 0078168 229.4118 130.0151 14.07491556286111",
    "selectedAt": "2025-11-08T17:48:40.581Z",
    "updatedAt": "2025-11-08T17:50:39.406Z"
  },
  {
    "index": 30,
    "satnum": 126,
    "tle1": "1 00126U 61015L   25312.14066837  .00002470  00000+0  73491-3 0  9999",
    "tle2": "2 00126  66.7099 325.5700 0052552  55.9735 304.6345 14.44013421332673",
    "selectedAt": "2025-11-08T17:48:40.581Z",
    "updatedAt": "2025-11-08T17:50:39.406Z"
  },
  {
    "index": 31,
    "satnum": 127,
    "tle1": "1 00127U 61015M   25312.10378911  .00002999  00000+0  81729-3 0  9994",
    "tle2": "2 00127  66.8270 177.8349 0065284 183.4567 176.6100 14.47518336334844",
    "selectedAt": "2025-11-08T17:48:40.581Z",
    "updatedAt": "2025-11-08T17:50:39.406Z"
  },
  {
    "index": 32,
    "satnum": 128,
    "tle1": "1 00128U 61015N   25311.89225882  .00000127  00000+0  13097-3 0  9992",
    "tle2": "2 00128  66.6769  13.3205 0086928 112.3101 248.7227 14.01957217284057",
    "selectedAt": "2025-11-08T17:48:40.581Z",
    "updatedAt": "2025-11-08T17:50:39.406Z"
  }
]